[{"OBJECT_NAME":"STARLINK-4597","OBJECT_ID":"2022-104BE","EPOCH":"2026-03-09T17:19:03.019872","MEAN_MOTION":15.08817331,"ECCENTRICITY":0.00011555,"INCLINATION":53.2172,"RA_OF_ASC_NODE":223.7263,"ARG_OF_PERICENTER":93.8701,"MEAN_ANOMALY":266.2424,"EPHEMERIS_TYPE":0,"CLASSIFICATION_TYPE":"U","NORAD_CAT_ID":53640,"ELEMENT_SET_NO":999,"REV_AT_EPOCH":19623,"BSTAR":-1.1622224e-5,"MEAN_MOTION_DOT":-4.73e-6,"MEAN_MOTION_DDOT":0},{"OBJECT_NAME":"NANOFF A","OBJECT_ID":"2023-185T","EPOCH":"2026-03-09T23:34:34.415328","MEAN_MOTION":15.11542977,"ECCENTRICITY":0.00086783,"INCLINATION":97.5359,"RA_OF_ASC_NODE":137.8345,"ARG_OF_PERICENTER":292.8968,"MEAN_ANOMALY":67.1346,"EPHEMERIS_TYPE":0,"CLASSIFICATION_TYPE":"U","NORAD_CAT_ID":58810,"ELEMENT_SET_NO":999,"REV_AT_EPOCH":11805,"BSTAR":0.00027314844,"MEAN_MOTION_DOT":4.57e-5,"MEAN_MOTION_DDOT":0}]
